[
    {
        "Altitude(m)": 571642.7781660667,
        "Argument of Periapsis(deg)": 0.026491964442854003,
        "Eccentricity": 0.0,
        "Inclination(deg)": 53.0,
        "Latitude(deg)": -52.62895826016945,
        "Longitude(deg)": 27.927641375006818,
        "Mean Anomaly(deg)": -83.26992852968965,
        "RAAN(deg)": 209.96057347411207,
        "Satellite Name": "Starlink Shell 1 938",
        "Satellite Number": 938,
        "Semi-Major Axis(m)": 6931778.249405717,
        "Time(s)": 760
    },
    {
        "Altitude(m)": 571603.7906307918,
        "Argument of Periapsis(deg)": 0.02684054292236524,
        "Eccentricity": 0.0,
        "Inclination(deg)": 53.0,
        "Latitude(deg)": -52.52845595112902,
        "Longitude(deg)": 28.898203843358075,
        "Mean Anomaly(deg)": -82.64309732613292,
        "RAAN(deg)": 209.9600547040346,
        "Satellite Name": "Starlink Shell 1 938",
        "Satellite Number": 938,
        "Semi-Major Axis(m)": 6931778.249405717,
        "Time(s)": 770
    },
    {
        "Altitude(m)": 571561.4179021601,
        "Argument of Periapsis(deg)": 0.027189121401876473,
        "Eccentricity": 0.0,
        "Inclination(deg)": 53.0,
        "Latitude(deg)": -52.419346203232365,
        "Longitude(deg)": 29.863969086911755,
        "Mean Anomaly(deg)": -82.01626612257617,
        "RAAN(deg)": 209.95953593395717,
        "Satellite Name": "Starlink Shell 1 938",
        "Satellite Number": 938,
        "Semi-Major Axis(m)": 6931778.249405717,
        "Time(s)": 780
    },
    {
        "Altitude(m)": 571515.6768603746,
        "Argument of Periapsis(deg)": 0.02753769988138771,
        "Eccentricity": 0.0,
        "Inclination(deg)": 53.0,
        "Latitude(deg)": -52.301704356031244,
        "Longitude(deg)": 30.824591169936593,
        "Mean Anomaly(deg)": -81.38943491901951,
        "RAAN(deg)": 209.95901716387965,
        "Satellite Name": "Starlink Shell 1 938",
        "Satellite Number": 938,
        "Semi-Major Axis(m)": 6931778.249405717,
        "Time(s)": 790
    },
    {
        "Altitude(m)": 571466.5857265716,
        "Argument of Periapsis(deg)": 0.02788627836089895,
        "Eccentricity": 0.0,
        "Inclination(deg)": 53.0,
        "Latitude(deg)": -52.17561067371296,
        "Longitude(deg)": 31.779737330718515,
        "Mean Anomaly(deg)": -80.76260371546276,
        "RAAN(deg)": 209.95849839380222,
        "Satellite Name": "Starlink Shell 1 938",
        "Satellite Number": 938,
        "Semi-Major Axis(m)": 6931778.249405717,
        "Time(s)": 800
    },
    {
        "Altitude(m)": 571414.1640549239,
        "Argument of Periapsis(deg)": 0.02823485684041019,
        "Eccentricity": 0.0,
        "Inclination(deg)": 53.0,
        "Latitude(deg)": -52.04115009038044,
        "Longitude(deg)": 32.729089095640354,
        "Mean Anomaly(deg)": -80.13577251190597,
        "RAAN(deg)": 209.95797962372473,
        "Satellite Name": "Starlink Shell 1 938",
        "Satellite Number": 938,
        "Semi-Major Axis(m)": 6931778.249405717,
        "Time(s)": 810
    },
    {
        "Altitude(m)": 571358.4327241916,
        "Argument of Periapsis(deg)": 0.028583435319921423,
        "Eccentricity": 0.0,
        "Inclination(deg)": 53.0,
        "Latitude(deg)": -51.898411946660886,
        "Longitude(deg)": 33.67234330711903,
        "Mean Anomaly(deg)": -79.5089413083493,
        "RAAN(deg)": 209.95746085364726,
        "Satellite Name": "Starlink Shell 1 938",
        "Satellite Number": 938,
        "Semi-Major Axis(m)": 6931778.249405717,
        "Time(s)": 820
    },
    {
        "Altitude(m)": 571299.4139286708,
        "Argument of Periapsis(deg)": 0.028932013799432665,
        "Eccentricity": 0.0,
        "Inclination(deg)": 53.0,
        "Latitude(deg)": -51.74748971926464,
        "Longitude(deg)": 34.60921155359034,
        "Mean Anomaly(deg)": -78.88211010479266,
        "RAAN(deg)": 209.95694208356977,
        "Satellite Name": "Starlink Shell 1 938",
        "Satellite Number": 938,
        "Semi-Major Axis(m)": 6931778.249405717,
        "Time(s)": 830
    },
    {
        "Altitude(m)": 571237.131168589,
        "Argument of Periapsis(deg)": 0.029280592278943897,
        "Eccentricity": 0.0,
        "Inclination(deg)": 53.0,
        "Latitude(deg)": -51.58848074529538,
        "Longitude(deg)": 35.53942102735704,
        "Mean Anomaly(deg)": -78.25527890123593,
        "RAAN(deg)": 209.9564233134923,
        "Satellite Name": "Starlink Shell 1 938",
        "Satellite Number": 938,
        "Semi-Major Axis(m)": 6931778.249405717,
        "Time(s)": 840
    },
    {
        "Altitude(m)": 571171.6092399138,
        "Argument of Periapsis(deg)": 0.029629170758455132,
        "Eccentricity": 0.0,
        "Inclination(deg)": 53.0,
        "Latitude(deg)": -51.42148594301464,
        "Longitude(deg)": 36.46271529886758,
        "Mean Anomaly(deg)": -77.62844769767915,
        "RAAN(deg)": 209.95590454341482,
        "Satellite Name": "Starlink Shell 1 938",
        "Satellite Number": 938,
        "Semi-Major Axis(m)": 6931778.249405717,
        "Time(s)": 850
    },
    {
        "Altitude(m)": 571102.874223602,
        "Argument of Periapsis(deg)": 0.02997774923796637,
        "Eccentricity": 0.0,
        "Inclination(deg)": 53.0,
        "Latitude(deg)": -51.246609530716476,
        "Longitude(deg)": 37.37885332852577,
        "Mean Anomaly(deg)": -77.00161649412247,
        "RAAN(deg)": 209.95538577333735,
        "Satellite Name": "Starlink Shell 1 938",
        "Satellite Number": 938,
        "Semi-Major Axis(m)": 6931778.249405717,
        "Time(s)": 860
    },
    {
        "Altitude(m)": 571030.9534743063,
        "Argument of Periapsis(deg)": 0.030326327717477602,
        "Eccentricity": 0.0,
        "Inclination(deg)": 53.0,
        "Latitude(deg)": -51.06395874528968,
        "Longitude(deg)": 38.28761092116509,
        "Mean Anomaly(deg)": -76.37478529056573,
        "RAAN(deg)": 209.9548670032599,
        "Satellite Name": "Starlink Shell 1 938",
        "Satellite Number": 938,
        "Semi-Major Axis(m)": 6931778.249405717,
        "Time(s)": 870
    },
    {
        "Altitude(m)": 570955.8756084954,
        "Argument of Periapsis(deg)": 0.030674906196988847,
        "Eccentricity": 0.0,
        "Inclination(deg)": 53.0,
        "Latitude(deg)": -50.87364356197757,
        "Longitude(deg)": 39.188779583561455,
        "Mean Anomaly(deg)": -75.74795408700906,
        "RAAN(deg)": 209.9543482331824,
        "Satellite Name": "Starlink Shell 1 938",
        "Satellite Number": 938,
        "Semi-Major Axis(m)": 6931778.249405717,
        "Time(s)": 880
    },
    {
        "Altitude(m)": 570877.6704920373,
        "Argument of Periapsis(deg)": 0.031023484676500086,
        "Eccentricity": 0.0,
        "Inclination(deg)": 53.0,
        "Latitude(deg)": -50.67577641673571,
        "Longitude(deg)": 40.08216699118404,
        "Mean Anomaly(deg)": -75.12112288345232,
        "RAAN(deg)": 209.95382946310494,
        "Satellite Name": "Starlink Shell 1 938",
        "Satellite Number": 938,
        "Semi-Major Axis(m)": 6931778.249405717,
        "Time(s)": 890
    },
    {
        "Altitude(m)": 570796.3692272402,
        "Argument of Periapsis(deg)": 0.03137206315601132,
        "Eccentricity": 0.0,
        "Inclination(deg)": 53.0,
        "Latitude(deg)": -50.47047193249895,
        "Longitude(deg)": 40.96759738739489,
        "Mean Anomaly(deg)": -74.49429167989567,
        "RAAN(deg)": 209.9533106930275,
        "Satellite Name": "Starlink Shell 1 938",
        "Satellite Number": 938,
        "Semi-Major Axis(m)": 6931778.249405717,
        "Time(s)": 900
    },
    {
        "Altitude(m)": 570712.0041393433,
        "Argument of Periapsis(deg)": 0.03172064163552255,
        "Eccentricity": 0.0,
        "Inclination(deg)": 53.0,
        "Latitude(deg)": -50.25784665055788,
        "Longitude(deg)": 41.844910406747374,
        "Mean Anomaly(deg)": -73.86746047633898,
        "RAAN(deg)": 209.95279192294998,
        "Satellite Name": "Starlink Shell 1 938",
        "Satellite Number": 938,
        "Semi-Major Axis(m)": 6931778.249405717,
        "Time(s)": 910
    },
    {
        "Altitude(m)": 570624.6087624674,
        "Argument of Periapsis(deg)": 0.0320692201150338,
        "Eccentricity": 0.0,
        "Inclination(deg)": 53.0,
        "Latitude(deg)": -50.03801876812725,
        "Longitude(deg)": 42.71396135289523,
        "Mean Anomaly(deg)": -73.24062927278213,
        "RAAN(deg)": 209.95227315287255,
        "Satellite Name": "Starlink Shell 1 938",
        "Satellite Number": 938,
        "Semi-Major Axis(m)": 6931778.249405717,
        "Time(s)": 920
    },
    {
        "Altitude(m)": 570534.2178250471,
        "Argument of Periapsis(deg)": 0.032417798594545036,
        "Eccentricity": 0.0,
        "Inclination(deg)": 53.0,
        "Latitude(deg)": -49.811107883080794,
        "Longitude(deg)": 43.57462142318969,
        "Mean Anomaly(deg)": -72.61379806922548,
        "RAAN(deg)": 209.95175438279503,
        "Satellite Name": "Starlink Shell 1 938",
        "Satellite Number": 938,
        "Semi-Major Axis(m)": 6931778.249405717,
        "Time(s)": 930
    },
    {
        "Altitude(m)": 570440.8672347269,
        "Argument of Periapsis(deg)": 0.03276637707405627,
        "Eccentricity": 0.0,
        "Inclination(deg)": 53.0,
        "Latitude(deg)": -49.57723474670881,
        "Longitude(deg)": 44.42677637215494,
        "Mean Anomaly(deg)": -71.9869668656688,
        "RAAN(deg)": 209.95123561271754,
        "Satellite Name": "Starlink Shell 1 938",
        "Satellite Number": 938,
        "Semi-Major Axis(m)": 6931778.249405717,
        "Time(s)": 940
    }
]